CCSDS_OMM_VERS = 2.0
CREATION_DATE  = 
ORIGINATOR     = 

OBJECT_NAME    = STARLINK-36119
OBJECT_ID      = 2026-020C
CENTER_NAME    = EARTH
REF_FRAME      = TEME
TIME_SYSTEM    = UTC
MEAN_ELEMENT_THEORY = SGP/SGP4

EPOCH          = 2026-02-19T13:24:18.929952
MEAN_MOTION    = 15.76937491
ECCENTRICITY   = .0002824
INCLINATION    = 42.9972
RA_OF_ASC_NODE = 252.4449
ARG_OF_PERICENTER = 234.4366
MEAN_ANOMALY   = 125.6241

EPHEMERIS_TYPE = 0
CLASSIFICATION_TYPE = U
NORAD_CAT_ID   = 67619
ELEMENT_SET_NO = 999
REV_AT_EPOCH   = 322
BSTAR          = .24420159E-2
MEAN_MOTION_DOT = .42865E-2
MEAN_MOTION_DDOT = 0

CCSDS_OMM_VERS = 2.0
CREATION_DATE  = 
ORIGINATOR     = 

OBJECT_NAME    = STARLINK-36607
OBJECT_ID      = 2026-020D
CENTER_NAME    = EARTH
REF_FRAME      = TEME
TIME_SYSTEM    = UTC
MEAN_ELEMENT_THEORY = SGP/SGP4

EPOCH          = 2026-02-17T22:41:59.793216
MEAN_MOTION    = 15.82415698
ECCENTRICITY   = .0002739
INCLINATION    = 42.9966
RA_OF_ASC_NODE = 261.8408
ARG_OF_PERICENTER = 285.0564
MEAN_ANOMALY   = 75.0004

EPHEMERIS_TYPE = 0
CLASSIFICATION_TYPE = U
NORAD_CAT_ID   = 67620
ELEMENT_SET_NO = 999
REV_AT_EPOCH   = 297
BSTAR          = .27681E-2
MEAN_MOTION_DOT = .639263E-2
MEAN_MOTION_DDOT = 0

CCSDS_OMM_VERS = 2.0
CREATION_DATE  = 
ORIGINATOR     = 

OBJECT_NAME    = STARLINK-36615
OBJECT_ID      = 2026-020E
CENTER_NAME    = EARTH
REF_FRAME      = TEME
TIME_SYSTEM    = UTC
MEAN_ELEMENT_THEORY = SGP/SGP4

EPOCH          = 2026-02-19T14:06:34.229088
MEAN_MOTION    = 15.82350825
ECCENTRICITY   = .00029926
INCLINATION    = 42.9971
RA_OF_ASC_NODE = 251.7845
ARG_OF_PERICENTER = 252.0024
MEAN_ANOMALY   = 108.0522

EPHEMERIS_TYPE = 0
CLASSIFICATION_TYPE = U
NORAD_CAT_ID   = 67621
ELEMENT_SET_NO = 999
REV_AT_EPOCH   = 323
BSTAR          = .31920365E-2
MEAN_MOTION_DOT = .744102E-2
MEAN_MOTION_DDOT = 0

CCSDS_OMM_VERS = 2.0
CREATION_DATE  = 
ORIGINATOR     = 

OBJECT_NAME    = STARLINK-36614
OBJECT_ID      = 2026-020F
CENTER_NAME    = EARTH
REF_FRAME      = TEME
TIME_SYSTEM    = UTC
MEAN_ELEMENT_THEORY = SGP/SGP4

EPOCH          = 2026-02-19T14:49:14.671488
MEAN_MOTION    = 15.76572615
ECCENTRICITY   = .00027826
INCLINATION    = 42.9990
RA_OF_ASC_NODE = 252.0242
ARG_OF_PERICENTER = 258.6145
MEAN_ANOMALY   = 101.4413

EPHEMERIS_TYPE = 0
CLASSIFICATION_TYPE = U
NORAD_CAT_ID   = 67622
ELEMENT_SET_NO = 999
REV_AT_EPOCH   = 323
BSTAR          = .26337536E-2
MEAN_MOTION_DOT = .456452E-2
MEAN_MOTION_DDOT = 0

CCSDS_OMM_VERS = 2.0
CREATION_DATE  = 
ORIGINATOR     = 

OBJECT_NAME    = STARLINK-36600
OBJECT_ID      = 2026-020G
CENTER_NAME    = EARTH
REF_FRAME      = TEME
TIME_SYSTEM    = UTC
MEAN_ELEMENT_THEORY = SGP/SGP4

EPOCH          = 2026-02-19T14:52:24.015360
MEAN_MOTION    = 15.76423866
ECCENTRICITY   = .00035507
INCLINATION    = 42.9977
RA_OF_ASC_NODE = 252.0427
ARG_OF_PERICENTER = 289.6040
MEAN_ANOMALY   = 70.4446

EPHEMERIS_TYPE = 0
CLASSIFICATION_TYPE = U
NORAD_CAT_ID   = 67623
ELEMENT_SET_NO = 999
REV_AT_EPOCH   = 323
BSTAR          = .15868347E-2
MEAN_MOTION_DOT = .266933E-2
MEAN_MOTION_DDOT = 0

CCSDS_OMM_VERS = 2.0
CREATION_DATE  = 
ORIGINATOR     = 

OBJECT_NAME    = STARLINK-36439
OBJECT_ID      = 2026-020H
CENTER_NAME    = EARTH
REF_FRAME      = TEME
TIME_SYSTEM    = UTC
MEAN_ELEMENT_THEORY = SGP/SGP4

EPOCH          = 2026-02-19T14:36:37.955232
MEAN_MOTION    = 15.76611606
ECCENTRICITY   = .00029146
INCLINATION    = 42.9973
RA_OF_ASC_NODE = 251.9536
ARG_OF_PERICENTER = 248.5118
MEAN_ANOMALY   = 111.5441

EPHEMERIS_TYPE = 0
CLASSIFICATION_TYPE = U
NORAD_CAT_ID   = 67624
ELEMENT_SET_NO = 999
REV_AT_EPOCH   = 323
BSTAR          = .30434972E-2
MEAN_MOTION_DOT = .533335E-2
MEAN_MOTION_DDOT = 0

CCSDS_OMM_VERS = 2.0
CREATION_DATE  = 
ORIGINATOR     = 

OBJECT_NAME    = STARLINK-36438
OBJECT_ID      = 2026-020J
CENTER_NAME    = EARTH
REF_FRAME      = TEME
TIME_SYSTEM    = UTC
MEAN_ELEMENT_THEORY = SGP/SGP4

EPOCH          = 2026-02-19T14:46:05.480544
MEAN_MOTION    = 15.76446396
ECCENTRICITY   = .00031568
INCLINATION    = 42.9981
RA_OF_ASC_NODE = 252.0054
ARG_OF_PERICENTER = 286.9608
MEAN_ANOMALY   = 73.0915

EPHEMERIS_TYPE = 0
CLASSIFICATION_TYPE = U
NORAD_CAT_ID   = 67625
ELEMENT_SET_NO = 999
REV_AT_EPOCH   = 323
BSTAR          = .1533708E-2
MEAN_MOTION_DOT = .257949E-2
MEAN_MOTION_DDOT = 0

CCSDS_OMM_VERS = 2.0
CREATION_DATE  = 
ORIGINATOR     = 

OBJECT_NAME    = STARLINK-36436
OBJECT_ID      = 2026-020K
CENTER_NAME    = EARTH
REF_FRAME      = TEME
TIME_SYSTEM    = UTC
MEAN_ELEMENT_THEORY = SGP/SGP4

EPOCH          = 2026-02-17T22:36:15.858144
MEAN_MOTION    = 15.82057753
ECCENTRICITY   = .0002173
INCLINATION    = 42.9968
RA_OF_ASC_NODE = 261.8078
ARG_OF_PERICENTER = 315.8447
MEAN_ANOMALY   = 44.2251

EPHEMERIS_TYPE = 0
CLASSIFICATION_TYPE = U
NORAD_CAT_ID   = 67626
ELEMENT_SET_NO = 999
REV_AT_EPOCH   = 297
BSTAR          = .19514E-2
MEAN_MOTION_DOT = .432403E-2
MEAN_MOTION_DDOT = 0

CCSDS_OMM_VERS = 2.0
CREATION_DATE  = 
ORIGINATOR     = 

OBJECT_NAME    = STARLINK-36502
OBJECT_ID      = 2026-020L
CENTER_NAME    = EARTH
REF_FRAME      = TEME
TIME_SYSTEM    = UTC
MEAN_ELEMENT_THEORY = SGP/SGP4

EPOCH          = 2026-02-19T14:01:00.291360
MEAN_MOTION    = 15.82256687
ECCENTRICITY   = .00023462
INCLINATION    = 42.9972
RA_OF_ASC_NODE = 251.7530
ARG_OF_PERICENTER = 264.7554
MEAN_ANOMALY   = 95.3050

EPHEMERIS_TYPE = 0
CLASSIFICATION_TYPE = U
NORAD_CAT_ID   = 67627
ELEMENT_SET_NO = 999
REV_AT_EPOCH   = 323
BSTAR          = .23327023E-2
MEAN_MOTION_DOT = .527687E-2
MEAN_MOTION_DDOT = 0

CCSDS_OMM_VERS = 2.0
CREATION_DATE  = 
ORIGINATOR     = 

OBJECT_NAME    = STARLINK-36532
OBJECT_ID      = 2026-020M
CENTER_NAME    = EARTH
REF_FRAME      = TEME
TIME_SYSTEM    = UTC
MEAN_ELEMENT_THEORY = SGP/SGP4

EPOCH          = 2026-02-19T13:58:11.026848
MEAN_MOTION    = 15.82303061
ECCENTRICITY   = .00032013
INCLINATION    = 42.9971
RA_OF_ASC_NODE = 251.7361
ARG_OF_PERICENTER = 254.9934
MEAN_ANOMALY   = 105.0583

EPHEMERIS_TYPE = 0
CLASSIFICATION_TYPE = U
NORAD_CAT_ID   = 67628
ELEMENT_SET_NO = 999
REV_AT_EPOCH   = 323
BSTAR          = .29231019E-2
MEAN_MOTION_DOT = .674299E-2
MEAN_MOTION_DDOT = 0

CCSDS_OMM_VERS = 2.0
CREATION_DATE  = 
ORIGINATOR     = 

OBJECT_NAME    = STARLINK-36367
OBJECT_ID      = 2026-020N
CENTER_NAME    = EARTH
REF_FRAME      = TEME
TIME_SYSTEM    = UTC
MEAN_ELEMENT_THEORY = SGP/SGP4

EPOCH          = 2026-02-19T14:00:03.000384
MEAN_MOTION    = 15.76341053
ECCENTRICITY   = .00016342
INCLINATION    = 42.9983
RA_OF_ASC_NODE = 251.9539
ARG_OF_PERICENTER = 258.4693
MEAN_ANOMALY   = 19.4531

EPHEMERIS_TYPE = 0
CLASSIFICATION_TYPE = U
NORAD_CAT_ID   = 67629
ELEMENT_SET_NO = 999
REV_AT_EPOCH   = 448
BSTAR          = .31981175E-3
MEAN_MOTION_DOT = .51852E-3
MEAN_MOTION_DDOT = 0

CCSDS_OMM_VERS = 2.0
CREATION_DATE  = 
ORIGINATOR     = 

OBJECT_NAME    = STARLINK-36416
OBJECT_ID      = 2026-020P
CENTER_NAME    = EARTH
REF_FRAME      = TEME
TIME_SYSTEM    = UTC
MEAN_ELEMENT_THEORY = SGP/SGP4

EPOCH          = 2026-02-19T14:42:56.294784
MEAN_MOTION    = 15.76339927
ECCENTRICITY   = .00024151
INCLINATION    = 42.9969
RA_OF_ASC_NODE = 251.9878
ARG_OF_PERICENTER = 287.1930
MEAN_ANOMALY   = 72.8675

EPHEMERIS_TYPE = 0
CLASSIFICATION_TYPE = U
NORAD_CAT_ID   = 67630
ELEMENT_SET_NO = 999
REV_AT_EPOCH   = 323
BSTAR          = .17506708E-2
MEAN_MOTION_DOT = .294381E-2
MEAN_MOTION_DDOT = 0

