STARLINK-36119          
1 67619U 26020C   26050.55855243  .00428650  00000+0  24420-2 0  9997
2 67619  42.9972 252.4449 0002824 234.4366 125.6241 15.76937491  3228
STARLINK-36607          
1 67620U 26020D   26048.94583094  .00639263  00000+0  27681-2 0  9997
2 67620  42.9966 261.8408 0002739 285.0564  75.0004 15.82415698  2972
STARLINK-36615          
1 67621U 26020E   26050.58789617  .00744102  00000+0  31920-2 0  9990
2 67621  42.9971 251.7845 0002992 252.0024 108.0522 15.82350825  3230
STARLINK-36614          
1 67622U 26020F   26050.61753092  .00456452  00000+0  26338-2 0  9998
2 67622  42.9990 252.0242 0002782 258.6145 101.4413 15.76572615  3232
STARLINK-36600          
1 67623U 26020G   26050.61972240  .00266933  00000+0  15868-2 0  9996
2 67623  42.9977 252.0427 0003550 289.6040  70.4446 15.76423866  3239
STARLINK-36439          
1 67624U 26020H   26050.60877263  .00533335  00000+0  30435-2 0  9995
2 67624  42.9973 251.9536 0002914 248.5118 111.5441 15.76611606  3231
STARLINK-36438          
1 67625U 26020J   26050.61534121  .00257949  00000+0  15337-2 0  9998
2 67625  42.9981 252.0054 0003156 286.9608  73.0915 15.76446396  3237
STARLINK-36436          
1 67626U 26020K   26048.94185021  .00432403  00000+0  19514-2 0  9994
2 67626  42.9968 261.8078 0002173 315.8447  44.2251 15.82057753  2973
STARLINK-36502          
1 67627U 26020L   26050.58403115  .00527687  00000+0  23327-2 0  9991
2 67627  42.9972 251.7530 0002346 264.7554  95.3050 15.82256687  3234
STARLINK-36532          
1 67628U 26020M   26050.58207207  .00674299  00000+0  29231-2 0  9998
2 67628  42.9971 251.7361 0003201 254.9934 105.0583 15.82303061  3239
STARLINK-36367          
1 67629U 26020N   26050.58336806  .00051852  00000+0  31981-3 0  9997
2 67629  42.9983 251.9539 0001634 258.4693  19.4531 15.76341053  4486
STARLINK-36416          
1 67630U 26020P   26050.61315156  .00294381  00000+0  17507-2 0  9991
2 67630  42.9969 251.9878 0002415 287.1930  72.8675 15.76339927  3230
